OSCAR 7 (AO-7)          
1 07530U 74089B   24283.59097425 -.00000026  00000+0  12829-3 0  9996
2 07530 101.9878 279.3451 0011921 225.2625 248.1326 12.53680595283373
PHASE 3B (AO-10)        
1 14129U 83058B   24283.52204585  .00000103  00000+0  00000+0 0  9993
2 14129  27.3593 321.0769 6034469 307.4707  11.5742  2.05866351282813
UOSAT 2 (UO-11)         
1 14781U 84021B   24283.47654696  .00005342  00000+0  59262-3 0  9992
2 14781  97.7205 249.4583 0009868  65.7530 294.4716 14.87624974165473
LUSAT (LO-19)           
1 20442U 90005G   24283.54538389  .00000898  00000+0  34032-3 0  9999
2 20442  98.8926 276.8831 0011076 205.6521 154.4114 14.33697644814164
EYESAT A (AO-27)        
1 22825U 93061C   24283.05509388  .00000686  00000+0  28007-3 0  9994
2 22825  98.7752 336.9513 0009480 104.7111 255.5122 14.30608415618891
ITAMSAT (IO-26)         
1 22826U 93061D   24283.14274003  .00000899  00000+0  35890-3 0  9992
2 22826  98.7698 336.9073 0010030  91.0004 269.2328 14.31002767619197
RADIO ROSTO (RS-15)     
1 23439U 94085A   24283.52359618 -.00000010  00000+0  91298-3 0  9998
2 23439  64.8163 218.8640 0147174 121.9949 239.5373 11.27578969226488
JAS-2 (FO-29)           
1 24278U 96046B   24283.50104953  .00000076  00000+0  11666-3 0  9999
2 24278  98.5813 203.1722 0348926 252.1320 104.1481 13.53215655389895
TECHSAT 1B (GO-32)      
1 25397U 98043D   24283.47938386  .00000602  00000+0  28153-3 0  9996
2 25397  98.9377 251.9921 0001547 142.8775 217.2510 14.24148117363688
ISS (ZARYA)             
1 25544U 98067A   24283.74287949  .00036685  00000+0  65734-3 0  9994
2 25544  51.6382 107.9834 0008673  55.9575  36.4391 15.49548840476314
PCSAT (NO-44)           
1 26931U 01043C   24283.59423988  .00001288  00000+0  51562-3 0  9996
2 26931  67.0528  35.9508 0007639 265.3486  94.6743 14.31423373202323
SAUDISAT 1C (SO-50)     
1 27607U 02058C   24283.57836296  .00006346  00000+0  85018-3 0  9995
2 27607  64.5546 229.7266 0028241  50.5488 309.8109 14.79914579173248
CUTE-1 (CO-55)          
1 27844U 03031E   24283.53065048  .00001685  00000+0  75919-3 0  9995
2 27844  98.6805 288.9989 0009920 165.9838 194.1618 14.23531454104058
CUBESAT XI-IV (CO-57)   
1 27848U 03031J   24283.44070966  .00001648  00000+0  75188-3 0  9991
2 27848  98.6831 289.0878 0009463 182.5329 177.5803 14.22934685103784
MOZHAYETS 4 (RS-22)     
1 27939U 03042A   24283.54690566  .00005085  00000+0  83931-3 0  9993
2 27939  98.3054  81.7161 0012604  61.8647  27.9388 14.70829622125084
CUBESAT XI-V            
1 28895U 05043F   24283.32668881  .00009303  00000+0  15964-2 0  9996
2 28895  98.2181  59.4981 0015100   0.4080 359.7135 14.68853893 11200
