[{"OBJECT_NAME":"OSCAR 7 (AO-7)","OBJECT_ID":"1974-089B","EPOCH":"2024-10-09T14:11:00.175200","MEAN_MOTION":12.53680595,"ECCENTRICITY":0.0011921,"INCLINATION":101.9878,"RA_OF_ASC_NODE":279.3451,"ARG_OF_PERICENTER":225.2625,"MEAN_ANOMALY":248.1326,"EPHEMERIS_TYPE":0,"CLASSIFICATION_TYPE":"U","NORAD_CAT_ID":7530,"ELEMENT_SET_NO":999,"REV_AT_EPOCH":28337,"BSTAR":0.00012829,"MEAN_MOTION_DOT":-2.6e-7,"MEAN_MOTION_DDOT":0},{"OBJECT_NAME":"PHASE 3B (AO-10)","OBJECT_ID":"1983-058B","EPOCH":"2024-10-09T12:31:44.761440","MEAN_MOTION":2.05866351,"ECCENTRICITY":0.6034469,"INCLINATION":27.3593,"RA_OF_ASC_NODE":321.0769,"ARG_OF_PERICENTER":307.4707,"MEAN_ANOMALY":11.5742,"EPHEMERIS_TYPE":0,"CLASSIFICATION_TYPE":"U","NORAD_CAT_ID":14129,"ELEMENT_SET_NO":999,"REV_AT_EPOCH":28281,"BSTAR":0,"MEAN_MOTION_DOT":1.03e-6,"MEAN_MOTION_DDOT":0},{"OBJECT_NAME":"UOSAT 2 (UO-11)","OBJECT_ID":"1984-021B","EPOCH":"2024-10-09T11:26:13.657344","MEAN_MOTION":14.87624974,"ECCENTRICITY":0.0009868,"INCLINATION":97.7205,"RA_OF_ASC_NODE":249.4583,"ARG_OF_PERICENTER":65.753,"MEAN_ANOMALY":294.4716,"EPHEMERIS_TYPE":0,"CLASSIFICATION_TYPE":"U","NORAD_CAT_ID":14781,"ELEMENT_SET_NO":999,"REV_AT_EPOCH":16547,"BSTAR":0.00059262,"MEAN_MOTION_DOT":5.342e-5,"MEAN_MOTION_DDOT":0},{"OBJECT_NAME":"LUSAT (LO-19)","OBJECT_ID":"1990-005G","EPOCH":"2024-10-09T13:05:21.168096","MEAN_MOTION":14.33697644,"ECCENTRICITY":0.0011076,"INCLINATION":98.8926,"RA_OF_ASC_NODE":276.8831,"ARG_OF_PERICENTER":205.6521,"MEAN_ANOMALY":154.4114,"EPHEMERIS_TYPE":0,"CLASSIFICATION_TYPE":"U","NORAD_CAT_ID":20442,"ELEMENT_SET_NO":999,"REV_AT_EPOCH":81416,"BSTAR":0.00034032,"MEAN_MOTION_DOT":8.98e-6,"MEAN_MOTION_DDOT":0},{"OBJECT_NAME":"EYESAT A (AO-27)","OBJECT_ID":"1993-061C","EPOCH":"2024-10-09T01:19:20.111232","MEAN_MOTION":14.30608415,"ECCENTRICITY":0.000948,"INCLINATION":98.7752,"RA_OF_ASC_NODE":336.9513,"ARG_OF_PERICENTER":104.7111,"MEAN_ANOMALY":255.5122,"EPHEMERIS_TYPE":0,"CLASSIFICATION_TYPE":"U","NORAD_CAT_ID":22825,"ELEMENT_SET_NO":999,"REV_AT_EPOCH":61889,"BSTAR":0.00028007,"MEAN_MOTION_DOT":6.86e-6,"MEAN_MOTION_DDOT":0},{"OBJECT_NAME":"ITAMSAT (IO-26)","OBJECT_ID":"1993-061D","EPOCH":"2024-10-09T03:25:32.738592","MEAN_MOTION":14.31002767,"ECCENTRICITY":0.001003,"INCLINATION":98.7698,"RA_OF_ASC_NODE":336.9073,"ARG_OF_PERICENTER":91.0004,"MEAN_ANOMALY":269.2328,"EPHEMERIS_TYPE":0,"CLASSIFICATION_TYPE":"U","NORAD_CAT_ID":22826,"ELEMENT_SET_NO":999,"REV_AT_EPOCH":61919,"BSTAR":0.0003589,"MEAN_MOTION_DOT":8.99e-6,"MEAN_MOTION_DDOT":0},{"OBJECT_NAME":"RADIO ROSTO (RS-15)","OBJECT_ID":"1994-085A","EPOCH":"2024-10-09T12:33:58.709952","MEAN_MOTION":11.27578969,"ECCENTRICITY":0.0147174,"INCLINATION":64.8163,"RA_OF_ASC_NODE":218.864,"ARG_OF_PERICENTER":121.9949,"MEAN_ANOMALY":239.5373,"EPHEMERIS_TYPE":0,"CLASSIFICATION_TYPE":"U","NORAD_CAT_ID":23439,"ELEMENT_SET_NO":999,"REV_AT_EPOCH":22648,"BSTAR":0.00091298,"MEAN_MOTION_DOT":-1.0e-7,"MEAN_MOTION_DDOT":0},{"OBJECT_NAME":"JAS-2 (FO-29)","OBJECT_ID":"1996-046B","EPOCH":"2024-10-09T12:01:30.679392","MEAN_MOTION":13.53215655,"ECCENTRICITY":0.0348926,"INCLINATION":98.5813,"RA_OF_ASC_NODE":203.1722,"ARG_OF_PERICENTER":252.132,"MEAN_ANOMALY":104.1481,"EPHEMERIS_TYPE":0,"CLASSIFICATION_TYPE":"U","NORAD_CAT_ID":24278,"ELEMENT_SET_NO":999,"REV_AT_EPOCH":38989,"BSTAR":0.00011666,"MEAN_MOTION_DOT":7.6e-7,"MEAN_MOTION_DDOT":0},{"OBJECT_NAME":"TECHSAT 1B (GO-32)","OBJECT_ID":"1998-043D","EPOCH":"2024-10-09T11:30:18.765504","MEAN_MOTION":14.24148117,"ECCENTRICITY":0.0001547,"INCLINATION":98.9377,"RA_OF_ASC_NODE":251.9921,"ARG_OF_PERICENTER":142.8775,"MEAN_ANOMALY":217.251,"EPHEMERIS_TYPE":0,"CLASSIFICATION_TYPE":"U","NORAD_CAT_ID":25397,"ELEMENT_SET_NO":999,"REV_AT_EPOCH":36368,"BSTAR":0.00028153,"MEAN_MOTION_DOT":6.02e-6,"MEAN_MOTION_DDOT":0},{"OBJECT_NAME":"ISS (ZARYA)","OBJECT_ID":"1998-067A","EPOCH":"2024-10-09T17:49:44.787936","MEAN_MOTION":15.4954884,"ECCENTRICITY":0.0008673,"INCLINATION":51.6382,"RA_OF_ASC_NODE":107.9834,"ARG_OF_PERICENTER":55.9575,"MEAN_ANOMALY":36.4391,"EPHEMERIS_TYPE":0,"CLASSIFICATION_TYPE":"U","NORAD_CAT_ID":25544,"ELEMENT_SET_NO":999,"REV_AT_EPOCH":47631,"BSTAR":0.00065734,"MEAN_MOTION_DOT":0.00036685,"MEAN_MOTION_DDOT":0},{"OBJECT_NAME":"PCSAT (NO-44)","OBJECT_ID":"2001-043C","EPOCH":"2024-10-09T14:15:42.325632","MEAN_MOTION":14.31423373,"ECCENTRICITY":0.0007639,"INCLINATION":67.0528,"RA_OF_ASC_NODE":35.9508,"ARG_OF_PERICENTER":265.3486,"MEAN_ANOMALY":94.6743,"EPHEMERIS_TYPE":0,"CLASSIFICATION_TYPE":"U","NORAD_CAT_ID":26931,"ELEMENT_SET_NO":999,"REV_AT_EPOCH":20232,"BSTAR":0.00051562,"MEAN_MOTION_DOT":1.288e-5,"MEAN_MOTION_DDOT":0},{"OBJECT_NAME":"SAUDISAT 1C (SO-50)","OBJECT_ID":"2002-058C","EPOCH":"2024-10-09T13:52:50.559744","MEAN_MOTION":14.79914579,"ECCENTRICITY":0.0028241,"INCLINATION":64.5546,"RA_OF_ASC_NODE":229.7266,"ARG_OF_PERICENTER":50.5488,"MEAN_ANOMALY":309.8109,"EPHEMERIS_TYPE":0,"CLASSIFICATION_TYPE":"U","NORAD_CAT_ID":27607,"ELEMENT_SET_NO":999,"REV_AT_EPOCH":17324,"BSTAR":0.00085018,"MEAN_MOTION_DOT":6.346e-5,"MEAN_MOTION_DDOT":0},{"OBJECT_NAME":"CUTE-1 (CO-55)","OBJECT_ID":"2003-031E","EPOCH":"2024-10-09T12:44:08.201472","MEAN_MOTION":14.23531454,"ECCENTRICITY":0.000992,"INCLINATION":98.6805,"RA_OF_ASC_NODE":288.9989,"ARG_OF_PERICENTER":165.9838,"MEAN_ANOMALY":194.1618,"EPHEMERIS_TYPE":0,"CLASSIFICATION_TYPE":"U","NORAD_CAT_ID":27844,"ELEMENT_SET_NO":999,"REV_AT_EPOCH":10405,"BSTAR":0.00075919,"MEAN_MOTION_DOT":1.685e-5,"MEAN_MOTION_DDOT":0},{"OBJECT_NAME":"CUBESAT XI-IV (CO-57)","OBJECT_ID":"2003-031J","EPOCH":"2024-10-09T10:34:37.314624","MEAN_MOTION":14.22934685,"ECCENTRICITY":0.0009463,"INCLINATION":98.6831,"RA_OF_ASC_NODE":289.0878,"ARG_OF_PERICENTER":182.5329,"MEAN_ANOMALY":177.5803,"EPHEMERIS_TYPE":0,"CLASSIFICATION_TYPE":"U","NORAD_CAT_ID":27848,"ELEMENT_SET_NO":999,"REV_AT_EPOCH":10378,"BSTAR":0.00075188,"MEAN_MOTION_DOT":1.648e-5,"MEAN_MOTION_DDOT":0},{"OBJECT_NAME":"MOZHAYETS 4 (RS-22)","OBJECT_ID":"2003-042A","EPOCH":"2024-10-09T13:07:32.649024","MEAN_MOTION":14.70829622,"ECCENTRICITY":0.0012604,"INCLINATION":98.3054,"RA_OF_ASC_NODE":81.7161,"ARG_OF_PERICENTER":61.8647,"MEAN_ANOMALY":27.9388,"EPHEMERIS_TYPE":0,"CLASSIFICATION_TYPE":"U","NORAD_CAT_ID":27939,"ELEMENT_SET_NO":999,"REV_AT_EPOCH":12508,"BSTAR":0.00083931,"MEAN_MOTION_DOT":5.085e-5,"MEAN_MOTION_DDOT":0},{"OBJECT_NAME":"CUBESAT XI-V","OBJECT_ID":"2005-043F","EPOCH":"2024-10-09T07:50:25.913184","MEAN_MOTION":14.68853893,"ECCENTRICITY":0.00151,"INCLINATION":98.2181,"RA_OF_ASC_NODE":59.4981,"ARG_OF_PERICENTER":0.408,"MEAN_ANOMALY":359.7135,"EPHEMERIS_TYPE":0,"CLASSIFICATION_TYPE":"U","NORAD_CAT_ID":28895,"ELEMENT_SET_NO":999,"REV_AT_EPOCH":1120,"BSTAR":0.0015964,"MEAN_MOTION_DOT":9.303e-5,"MEAN_MOTION_DDOT":0}]
